[Satellite]
VERSION=1.1
NAME=CZ-6A DEB
NICKNAME=CZ-6A DEB
TLE1=1 54277U 22151U   22342.46953870  .00000275  00000+0  15605-3 0  9994
TLE2=2 54277  98.8867 347.8120 0047553 274.6256  84.9488 14.17552548  3189
STATUS=0
